[
    {
        "Altitude(m)": 617719.7882181165,
        "Argument of Periapsis(deg)": 0.0,
        "Eccentricity": 0.0,
        "Inclination(deg)": 60.0,
        "Latitude(deg)": -41.10268687247878,
        "Longitude(deg)": -119.9054223400189,
        "Mean Anomaly(deg)": 229.09089999999998,
        "RAAN(deg)": 130.0,
        "Satellite Name": "Test1 586",
        "Satellite Number": 586,
        "Semi-Major Axis(m)": 6980739.136638005,
        "Time(s)": 0
    },
    {
        "Altitude(m)": 617911.3244198372,
        "Argument of Periapsis(deg)": 0.00010418945913296404,
        "Eccentricity": 0.0,
        "Inclination(deg)": 60.0,
        "Latitude(deg)": -41.56587954653203,
        "Longitude(deg)": -119.40101656631593,
        "Mean Anomaly(deg)": 229.71100614546188,
        "RAAN(deg)": 129.99957995086024,
        "Satellite Name": "Test1 586",
        "Satellite Number": 586,
        "Semi-Major Axis(m)": 6980739.136638005,
        "Time(s)": 10
    }
]